RADCAL                  
1 22698U 93041A   08263.86012381  .00000084  00000-0  29793-4 0  1507
2 22698  89.5227  41.6876 0091772 119.4320 241.6083 14.22800725790832
STRV 1A                 
1 23125U 94034B   08263.39266738  .00001654  00000-0  34010-3 0  2637
2 23125   7.2438 236.9746 6862159 358.5177   0.2100  2.82728850131740
STRV 1B                 
1 23126U 94034C   08262.35365300  .00001404  00000-0  28020-3 0  2837
2 23126   6.9562 185.4924 6808729  98.1981 337.8565  2.89827983133744
HELIOS 1A               
1 23605U 95033A   08264.18038247 -.00000022  00000-0  47895-5 0  4098
2 23605  98.1327 198.7436 0001665 133.0460 227.0885 14.63825096705672
REX 2                   
1 23814U 96014A   08263.17526185  .00000049  00000-0  16702-4 0  4877
2 23814  90.1515 267.3839 0024239 115.4935 244.8761 14.23848972650985
COSMOS 2346             
1 24953U 97052A   08264.20500816  .00000032  00000-0  16119-4 0  2673
2 24953  82.9256 157.8006 0039248 167.6758 192.5370 13.79432734553407
ARGOS                   
1 25634U 99008A   08263.11461335  .00000220  00000-0  12808-3 0  5261
2 25634  99.0456 289.2071 0010408   3.8064 356.3197 14.18898088495601
HELIOS 1B               
1 25977U 99064A   08264.04536436  .00000263  00000-0  44573-4 0  5678
2 25977  98.3255 249.5722 0002389  93.1108 267.0360 14.77617379472031
MTI                     
1 26102U 00014A   08264.13800628  .00000319  00000-0  22269-4 0  8980
2 26102  97.1977  77.6035 0019448 332.1732  91.1164 15.11560721468603
STRV 1C                 
1 26610U 00072C   08262.71880238 -.00000421  00000-0  00000+0 0  8243
2 26610   7.3240   8.9669 7338624 255.0737  20.1289  2.03459657 58290
OFEQ 5                  
1 27434U 02025A   08264.12856376  .00000929  00000-0  31684-4 0  4831
2 27434 143.4643 105.9151 0027259 301.5669  58.2413 15.05297907352574
HELIOS-2A               
1 28492U 04049A   08264.21371886  .00000089  00000-0  26113-4 0  2254
2 28492  98.1361 198.8172 0001485 108.9135 251.2232 14.63834967200646
ESSAIM-1                
1 28494U 04049C   08264.18497417  .00000075  00000-0  20955-4 0  2805
2 28494  98.2148 214.5315 0003490  30.5632 329.5784 14.70161497201413
ESSAIM-2                
1 28495U 04049D   08264.18451728  .00000007  00000-0  95850-5 0  3174
2 28495  98.2156 214.6163 0004296  21.9930 338.1471 14.70163855201414
ESSAIM-3                
1 28496U 04049E   08264.18515811  .00000010  00000-0  10230-4 0  2484
2 28496  98.2279 218.4916 0009614  27.7569 332.4155 14.70162660201598
ESSAIM-4                
1 28497U 04049F   08264.18469567  .00000061  00000-0  18665-4 0  3039
2 28497  98.2281 218.5253 0012750  22.5524 337.6240 14.70162581201590
SAR-LUPE 1              
1 29658U 06060A   08264.22045390  .00000804  00000-0  33834-4 0  9781
2 29658  98.1060 334.3860 0024087 115.3537 326.5796 15.26539210 97748
MIDSTAR-1               
1 30773U 07006B   08263.70770768 -.00000304  00000-0  00000+0 0  4390
2 30773  46.0300 358.7017 0010638 166.5923 193.5234 15.23566589 85488
CFESAT                  
1 30777U 07006F   08263.48617186  .00000280  00000-0  23710-4 0  4078
2 30777  35.4343 304.1572 0003252  55.1102 304.9919 15.02567830 84314
NFIRE                   
1 31140U 07014A   08263.32618893 -.00246071  27169-4 -72502-3 0  5828
2 31140  48.2271 226.2257 0143661 127.0481 234.3798 15.76615696 79986
OFEQ 7                  
1 31601U 07025A   08264.20607438  .00001520  00000-0  47028-4 0  4623
2 31601 141.7489 283.8025 0071738 189.0507 207.9979 15.18820051 71351
SAR-LUPE 2              
1 31797U 07030A   08264.15510613  .00000721  00000-0  30863-4 0  3762
2 31797  98.2078  41.3081 0016887  66.6646  51.9925 15.26537794 67951
SAR-LUPE 3              
1 32283U 07053A   08264.16176191  .00000499  00000-0  22419-4 0    35
2 32283  98.1548 105.0872 0012388 168.8066 305.8666 15.26499192 49460
SAR-LUPE 4              
1 32750U 08014A   08264.14398635  .00000630  00000-0  27311-4 0  5442
2 32750  98.1440 335.0671 0022742 286.7936 159.0550 15.26539809 26919
SAR-LUPE 5              
1 33244U 08036A   08264.18009431  .00000435  00000-0  20217-4 0  1944
2 33244  98.1491 103.8317 0020619 335.4127 114.8456 15.25993191  9166
